start=new Date('2022-01-12T00:00:00.000Z').valueOf();
sats=[{"GP_ID":"193690059","MEAN_ELEMENT_THEORY":"SGP4","ARG_OF_PERICENTER":"82.8719","INCLINATION":"53.0546","ECCENTRICITY":"0.00014020","REF_FRAME":"TEME","COUNTRY_CODE":"US","MEAN_MOTION_DOT":"-0.00001586","PERIAPSIS":"546.253","OBJECT_NAME":"STARLINK-1579","TIME_SYSTEM":"UTC","SEMIMAJOR_AXIS":"6925.359","MEAN_MOTION":"15.06396561","APOAPSIS":"548.195","RA_OF_ASC_NODE":"71.7312","FILE":"3269987","OBJECT_ID":"2020-055BJ","OBJECT_TYPE":"PAYLOAD","EPHEMERIS_TYPE":"0","REV_AT_EPOCH":"8048","NORAD_CAT_ID":"46083","PERIOD":"95.592","DECAY_DATE":null,"MEAN_MOTION_DDOT":"0.0000000000000","TLE_LINE1":"1 46083U 20055BJ  22011.56699643 -.00001586  00000-0 -87604-4 0  9998","RCS_SIZE":"LARGE","BSTAR":"-0.00008760400000","TLE_LINE2":"2 46083  53.0546  71.7312 0001402  82.8719 277.2430 15.06396561 80486","LAUNCH_DATE":"2020-08-07","EPOCH":"2022-01-11T13:36:28.491552","CENTER_NAME":"EARTH","SITE":"AFETR","CLASSIFICATION_TYPE":"U","ELEMENT_SET_NO":"999","MEAN_ANOMALY":"277.2430"},{"DECAY_DATE":null,"MEAN_MOTION_DDOT":"0.0000000000000","TLE_LINE1":"1 46117U 20057A   22011.93191347 -.00002338  00000-0 -13810-3 0  9990","RCS_SIZE":"LARGE","PERIOD":"95.593","EPHEMERIS_TYPE":"0","REV_AT_EPOCH":"7758","NORAD_CAT_ID":"46117","OBJECT_ID":"2020-057A","OBJECT_TYPE":"PAYLOAD","FILE":"3269987","CLASSIFICATION_TYPE":"U","ELEMENT_SET_NO":"999","MEAN_ANOMALY":"295.1988","SITE":"AFETR","CENTER_NAME":"EARTH","EPOCH":"2022-01-11T22:21:57.323808","LAUNCH_DATE":"2020-08-18","BSTAR":"-0.00013810000000","TLE_LINE2":"2 46117  53.0536 270.1094 0002424  64.9253 295.1988 15.06391249 77586","COUNTRY_CODE":"US","MEAN_MOTION_DOT":"-0.00002338","REF_FRAME":"TEME","ECCENTRICITY":"0.00024240","INCLINATION":"53.0536","MEAN_ELEMENT_THEORY":"SGP4","ARG_OF_PERICENTER":"64.9253","GP_ID":"193691064","MEAN_MOTION":"15.06391249","APOAPSIS":"548.919","RA_OF_ASC_NODE":"270.1094","SEMIMAJOR_AXIS":"6925.375","TIME_SYSTEM":"UTC","OBJECT_NAME":"STARLINK-1585","PERIAPSIS":"545.562"},{"LAUNCH_DATE":"2020-08-18","EPOCH":"2022-01-11T22:35:11.909184","TLE_LINE2":"2 46118  53.0543 290.0601 0002125  65.7972 294.3239 15.06401403 78580","BSTAR":"0.00002686300000","SITE":"AFETR","CENTER_NAME":"EARTH","MEAN_ANOMALY":"294.3239","CLASSIFICATION_TYPE":"U","ELEMENT_SET_NO":"999","FILE":"3269987","OBJECT_TYPE":"PAYLOAD","OBJECT_ID":"2020-057B","TLE_LINE1":"1 46118U 20057B   22011.94111006  .00000118  00000-0  26863-4 0  9991","RCS_SIZE":"LARGE","DECAY_DATE":null,"MEAN_MOTION_DDOT":"0.0000000000000","REV_AT_EPOCH":"7858","NORAD_CAT_ID":"46118","EPHEMERIS_TYPE":"0","PERIOD":"95.592","SEMIMAJOR_AXIS":"6925.344","PERIAPSIS":"545.738","OBJECT_NAME":"STARLINK-1588","TIME_SYSTEM":"UTC","APOAPSIS":"548.681","RA_OF_ASC_NODE":"290.0601","MEAN_MOTION":"15.06401403","ARG_OF_PERICENTER":"65.7972","MEAN_ELEMENT_THEORY":"SGP4","INCLINATION":"53.0543","GP_ID":"193691308","MEAN_MOTION_DOT":"0.00000118","COUNTRY_CODE":"US","ECCENTRICITY":"0.00021250","REF_FRAME":"TEME"},{"COUNTRY_CODE":"US","MEAN_MOTION_DOT":"-0.00001960","ECCENTRICITY":"0.00018530","REF_FRAME":"TEME","ARG_OF_PERICENTER":"68.7042","MEAN_ELEMENT_THEORY":"SGP4","INCLINATION":"53.0558","GP_ID":"193690563","RA_OF_ASC_NODE":"290.1167","APOAPSIS":"548.501","MEAN_MOTION":"15.06398641","SEMIMAJOR_AXIS":"6925.353","PERIAPSIS":"545.934","OBJECT_NAME":"STARLINK-1593","TIME_SYSTEM":"UTC","TLE_LINE1":"1 46119U 20057C   22011.93005829 -.00001960  00000-0 -11269-3 0  9997","RCS_SIZE":"LARGE","DECAY_DATE":null,"MEAN_MOTION_DDOT":"0.0000000000000","NORAD_CAT_ID":"46119","REV_AT_EPOCH":"7856","EPHEMERIS_TYPE":"0","PERIOD":"95.592","FILE":"3269987","OBJECT_TYPE":"PAYLOAD","OBJECT_ID":"2020-057C","SITE":"AFETR","CENTER_NAME":"EARTH","MEAN_ANOMALY":"291.4144","ELEMENT_SET_NO":"999","CLASSIFICATION_TYPE":"U","LAUNCH_DATE":"2020-08-18","EPOCH":"2022-01-11T22:19:17.036256","TLE_LINE2":"2 46119  53.0558 290.1167 0001853  68.7042 291.4144 15.06398641 78563","BSTAR":"-0.00011269000000"},{"GP_ID":"193690308","INCLINATION":"53.0541","MEAN_ELEMENT_THEORY":"SGP4","ARG_OF_PERICENTER":"62.6750","REF_FRAME":"TEME","ECCENTRICITY":"0.00020540","MEAN_MOTION_DOT":"-0.00000954","COUNTRY_CODE":"US","TIME_SYSTEM":"UTC","OBJECT_NAME":"STARLINK-1601","PERIAPSIS":"545.804","SEMIMAJOR_AXIS":"6925.362","RA_OF_ASC_NODE":"290.1757","APOAPSIS":"548.649","MEAN_MOTION":"15.06395777","OBJECT_ID":"2020-057D","OBJECT_TYPE":"PAYLOAD","FILE":"3269987","PERIOD":"95.592","EPHEMERIS_TYPE":"0","NORAD_CAT_ID":"46120","REV_AT_EPOCH":"7858","MEAN_MOTION_DDOT":"0.0000000000000","DECAY_DATE":null,"TLE_LINE1":"1 46120U 20057D   22011.91531389 -.00000954  00000-0 -45137-4 0  9996","RCS_SIZE":"LARGE","BSTAR":"-0.00004513700000","TLE_LINE2":"2 46120  53.0541 290.1757 0002054  62.6750 297.4448 15.06395777 78587","EPOCH":"2022-01-11T21:58:03.120096","LAUNCH_DATE":"2020-08-18","ELEMENT_SET_NO":"999","CLASSIFICATION_TYPE":"U","MEAN_ANOMALY":"297.4448","CENTER_NAME":"EARTH","SITE":"AFETR"},{"CENTER_NAME":"EARTH","SITE":"AFETR","ELEMENT_SET_NO":"999","CLASSIFICATION_TYPE":"U","MEAN_ANOMALY":"298.4168","LAUNCH_DATE":"2020-08-18","EPOCH":"2022-01-11T10:04:10.492032","BSTAR":"-0.00009060200000","TLE_LINE2":"2 46121  53.0549 272.4049 0002435  61.7067 298.4168 15.06388496 77508","DECAY_DATE":null,"MEAN_MOTION_DDOT":"0.0000000000000","TLE_LINE1":"1 46121U 20057E   22011.41956588 -.00001631  00000-0 -90602-4 0  9994","RCS_SIZE":"LARGE","EPHEMERIS_TYPE":"0","REV_AT_EPOCH":"7750","NORAD_CAT_ID":"46121","PERIOD":"95.593","FILE":"3269657","OBJECT_ID":"2020-057E","OBJECT_TYPE":"PAYLOAD","APOAPSIS":"548.935","MEAN_MOTION":"15.06388496","RA_OF_ASC_NODE":"272.4049","SEMIMAJOR_AXIS":"6925.384","OBJECT_NAME":"STARLINK-1602","PERIAPSIS":"545.562","TIME_SYSTEM":"UTC","COUNTRY_CODE":"US","MEAN_MOTION_DOT":"-0.00001631","ECCENTRICITY":"0.00024350","REF_FRAME":"TEME","MEAN_ELEMENT_THEORY":"SGP4","ARG_OF_PERICENTER":"61.7067","INCLINATION":"53.0549","GP_ID":"193661761"},{"EPOCH":"2022-01-11T15:04:03.184896","LAUNCH_DATE":"2020-08-18","BSTAR":"-0.00003440600000","TLE_LINE2":"2 46122  53.0535 251.4576 0002351  62.4968 297.6260 15.06395449 79075","ELEMENT_SET_NO":"999","CLASSIFICATION_TYPE":"U","MEAN_ANOMALY":"297.6260","SITE":"AFETR","CENTER_NAME":"EARTH","OBJECT_ID":"2020-057F","OBJECT_TYPE":"PAYLOAD","FILE":"3269987","DECAY_DATE":null,"MEAN_MOTION_DDOT":"0.0000000000000","TLE_LINE1":"1 46122U 20057F   22011.62781464 -.00000794  00000-0 -34406-4 0  9996","RCS_SIZE":"LARGE","PERIOD":"95.592","EPHEMERIS_TYPE":"0","REV_AT_EPOCH":"7907","NORAD_CAT_ID":"46122","SEMIMAJOR_AXIS":"6925.363","TIME_SYSTEM":"UTC","OBJECT_NAME":"STARLINK-1604","PERIAPSIS":"545.599","RA_OF_ASC_NODE":"251.4576","APOAPSIS":"548.856","MEAN_MOTION":"15.06395449","INCLINATION":"53.0535","MEAN_ELEMENT_THEORY":"SGP4","ARG_OF_PERICENTER":"62.4968","GP_ID":"193691808","MEAN_MOTION_DOT":"-0.00000794","COUNTRY_CODE":"US","REF_FRAME":"TEME","ECCENTRICITY":"0.00023510"},{"OBJECT_TYPE":"PAYLOAD","OBJECT_ID":"2020-057G","FILE":"3269987","PERIOD":"95.592","REV_AT_EPOCH":"7911","NORAD_CAT_ID":"46123","EPHEMERIS_TYPE":"0","TLE_LINE1":"1 46123U 20057G   22011.74577869  .00000312  00000-0  39865-4 0  9990","RCS_SIZE":"LARGE","MEAN_MOTION_DDOT":"0.0000000000000","DECAY_DATE":null,"TLE_LINE2":"2 46123  53.0540 250.9359 0002066  57.1755 302.9433 15.06395971 79110","BSTAR":"0.00003986500000","EPOCH":"2022-01-11T17:53:55.278816","LAUNCH_DATE":"2020-08-18","MEAN_ANOMALY":"302.9433","ELEMENT_SET_NO":"999","CLASSIFICATION_TYPE":"U","CENTER_NAME":"EARTH","SITE":"AFETR","GP_ID":"193690064","INCLINATION":"53.0540","ARG_OF_PERICENTER":"57.1755","MEAN_ELEMENT_THEORY":"SGP4","REF_FRAME":"TEME","ECCENTRICITY":"0.00020660","COUNTRY_CODE":"US","MEAN_MOTION_DOT":"0.00000312","TIME_SYSTEM":"UTC","PERIAPSIS":"545.795","OBJECT_NAME":"STARLINK-1605","SEMIMAJOR_AXIS":"6925.361","RA_OF_ASC_NODE":"250.9359","APOAPSIS":"548.657","MEAN_MOTION":"15.06395971"},{"MEAN_MOTION_DOT":"0.00000055","COUNTRY_CODE":"US","ECCENTRICITY":"0.00026260","REF_FRAME":"TEME","ARG_OF_PERICENTER":"61.0472","MEAN_ELEMENT_THEORY":"SGP4","INCLINATION":"53.0548","GP_ID":"193690808","APOAPSIS":"549.023","RA_OF_ASC_NODE":"250.9121","MEAN_MOTION":"15.06402851","SEMIMAJOR_AXIS":"6925.340","OBJECT_NAME":"STARLINK-1614","PERIAPSIS":"545.386","TIME_SYSTEM":"UTC","TLE_LINE1":"1 46124U 20057H   22011.75313890  .00000055  00000-0  22630-4 0  9990","RCS_SIZE":"LARGE","MEAN_MOTION_DDOT":"0.0000000000000","DECAY_DATE":null,"NORAD_CAT_ID":"46124","REV_AT_EPOCH":"7784","EPHEMERIS_TYPE":"0","PERIOD":"95.592","FILE":"3269987","OBJECT_TYPE":"PAYLOAD","OBJECT_ID":"2020-057H","SITE":"AFETR","CENTER_NAME":"EARTH","MEAN_ANOMALY":"299.0780","CLASSIFICATION_TYPE":"U","ELEMENT_SET_NO":"999","LAUNCH_DATE":"2020-08-18","EPOCH":"2022-01-11T18:04:31.200960","TLE_LINE2":"2 46124  53.0548 250.9121 0002626  61.0472 299.0780 15.06402851 77843","BSTAR":"0.00002263000000"},{"DECAY_DATE":null,"MEAN_MOTION_DDOT":"0.0000000000000","TLE_LINE1":"1 46125U 20057J   22011.93374347 -.00001890  00000-0 -10801-3 0  9991","RCS_SIZE":"LARGE","EPHEMERIS_TYPE":"0","NORAD_CAT_ID":"46125","REV_AT_EPOCH":"7856","PERIOD":"95.592","FILE":"3269987","OBJECT_ID":"2020-057J","OBJECT_TYPE":"PAYLOAD","SITE":"AFETR","CENTER_NAME":"EARTH","CLASSIFICATION_TYPE":"U","ELEMENT_SET_NO":"999","MEAN_ANOMALY":"298.7900","LAUNCH_DATE":"2020-08-18","EPOCH":"2022-01-11T22:24:35.435808","BSTAR":"-0.00010801000000","TLE_LINE2":"2 46125  53.0535 290.0771 0002026  61.3293 298.7900 15.06401548 78566","COUNTRY_CODE":"US","MEAN_MOTION_DOT":"-0.00001890","ECCENTRICITY":"0.00020260","REF_FRAME":"TEME","MEAN_ELEMENT_THEORY":"SGP4","ARG_OF_PERICENTER":"61.3293","INCLINATION":"53.0535","GP_ID":"193691065","APOAPSIS":"548.612","RA_OF_ASC_NODE":"290.0771","MEAN_MOTION":"15.06401548","SEMIMAJOR_AXIS":"6925.344","PERIAPSIS":"545.806","OBJECT_NAME":"STARLINK-1618","TIME_SYSTEM":"UTC"}];
